SCD 1                   
1 22490U 93009B   26197.91814633  .00000295  00000+0  30070-4 0  9997
2 22490  24.9706  24.0031 0042083  92.6970  21.2877 14.46129044765423
TECHSAT 1B (GO-32)      
1 25397U 98043D   26197.91760654  .00000005  00000+0  22495-4 0  9993
2 25397  99.0086 191.4285 0002237 112.2048 247.9368 14.24433546455562
SCD 2                   
1 25504U 98060A   26198.19423969  .00000272  00000+0  25213-4 0  9995
2 25504  24.9941 247.1085 0017009  80.4265 324.2762 14.45535210464679
DLR-TUBSAT              
1 25757U 99029B   26197.91617568 -.00000002  00000+0  11537-4 0  9996
2 25757  98.6711 194.4007 0012990 259.0162 100.9571 14.52433448437567
TERRA                   
1 25994U 99068A   26198.14186242  .00000174  00000+0  44393-4 0  9993
2 25994  97.9440 246.4979 0003485 118.8743 261.9090 14.61124589413980
MAROC-TUBSAT            
1 27004U 01056D   26197.49128579 -.00000042  00000+0  46412-5 0  9993
2 27004  99.8099  14.9053 0020583  68.8803 305.7155 13.70263591230202
AQUA                    
1 27424U 02022A   26198.23213147  .00000338  00000+0  76968-4 0  9997
2 27424  98.4298 168.1195 0001227 101.4578 317.4190 14.62130152287669
SHIYAN-1 (SY-1)         
1 28220U 04012A   26198.18696478  .00007510  00000+0  22745-3 0  9991
2 28220  97.8684 278.2199 0004117 265.4291  94.6480 15.34483845215697
AURA                    
1 28376U 04026A   26198.18152830  .00000350  00000+0  80517-4 0  9994
2 28376  98.3431 154.8866 0001346  93.6763 266.4591 14.61369380170598
IRS-P5 (CARTOSAT-1)     
1 28649U 05017A   26198.00793889  .00000750  00000+0  80936-4 0  9993
2 28649  97.5306 219.7198 0001291  50.7450 309.3883 14.91119758148263
SINAH 1                 
1 28893U 05043D   26198.19159573  .00000123  00000+0  32802-4 0  9992
2 28893  98.2896 332.6962 0014537 177.2915 182.8368 14.64176155104918
RESURS-DK 1             
1 29228U 06021A   26197.45020316  .00000852  00000+0  53811-4 0  9994
2 29228  69.9306 263.7965 0007178 269.6714  90.3630 15.13321208107009
ARIRANG-2 (KOMPSAT-2)   
1 29268U 06031A   26198.16078124 -.00000109  00000+0 -11947-4 0  9999
2 29268  97.8308  21.1577 0014108 344.5454 149.6984 14.64675398 65869
LAPAN-TUBSAT            
1 29709U 07001A   26198.15214292  .00000221  00000+0  31909-4 0  9997
2 29709  98.1346 198.0536 0013575  88.1934 272.0835 14.85976685 55608
HAIYANG-1B              
1 31113U 07010A   26197.93073682  .00000029  00000+0  26942-4 0  9997
2 31113  98.3516 178.6253 0014687 111.0193 249.2564 14.31033589  4897
COSMO-SKYMED 1          
1 31598U 07023A   26198.14349656  .00001498  00000+0  13468-3 0  9998
2 31598  97.8848  30.2529 0001589 102.0614 258.0785 14.97225365 34275
TERRASAR-X              
1 31698U 07026A   26188.47915537  .00000240  00000+0  14624-4 0  9994
2 31698  97.4461 195.8972 0001878  86.9540 273.1909 15.19153986 56300
WORLDVIEW-1 (WV-1)      
1 32060U 07041A   26198.15847135  .00003096  00000+0  12860-3 0  9990
2 32060  97.3907 317.4823 0001711 197.2746 162.8434 15.24571247 47447
YAOGAN-3                
1 32289U 07055A   26198.19611178  .00000491  00000+0  55445-4 0  9991
2 32289  97.8141 227.7776 0001555  77.5089 282.6303 14.90885866 10343
COSMO-SKYMED 2          
1 32376U 07059A   26198.13572550  .00000146  00000+0  24842-4 0  9990
2 32376  97.8895  21.3005 0001462  93.8289 266.3091 14.82151386  6442
RADARSAT-2              
1 32382U 07061A   26198.19525531  .00000223  00000+0  10321-3 0  9995
2 32382  98.5778 204.6996 0001319  84.1785 275.9548 14.29984232970243
CARTOSAT-2A             
1 32783U 08021A   26198.14748977 -.00000058  00000+0 -10705-5 0  9999
2 32783  97.7614 245.8312 0012319  21.2071 338.9649 14.79276341983234
HUANJING 1A (HJ-1A)     
1 33320U 08041A   26198.23829054  .00000622  00000+0  80572-4 0  9998
2 33320  97.6695 182.9182 0020192  43.3135 316.9663 14.84050819962864
HUANJING 1B (HJ-1B)     
1 33321U 08041B   26198.22117285  .00000428  00000+0  57774-4 0  9996
2 33321  97.6533 185.9823 0037997  84.8664 275.6885 14.83367925962864
GEOEYE 1                
1 33331U 08042A   26198.14245284  .00000162  00000+0  39364-4 0  9990
2 33331  98.1326 271.7155 0003808 339.9082  20.1971 14.64650216954536
THEOS                   
1 33396U 08049A   26198.19435921 -.00000036  00000+0  30754-5 0  9998
2 33396  98.5555 254.5013 0001098  89.8923 270.2380 14.20137064922227
COSMO-SKYMED 3          
1 33412U 08054A   26198.15448519  .00002581  00000+0  17577-3 0  9998
2 33412  97.8243  57.2202 0015905 160.1213 200.0637 15.07124547961459
YAOGAN-4                
1 33446U 08061A   26197.78272492  .00000450  00000+0  61628-4 0  9996
2 33446  97.9303 131.0757 0013683 340.3145  19.7539 14.83252895950058
GOSAT (IBUKI)           
1 33492U 09002A   26197.86578694  .00000287  00000+0  59162-4 0  9993
2 33492  98.0915 308.5785 0001139  88.7610 271.3725 14.67540799935810
DEIMOS-1                
1 35681U 09041A   26198.16560162  .00000119  00000+0  24565-4 0  9996
2 35681  97.7434 354.0988 0002785  90.3132 269.8397 14.75264756911301
DUBAISAT-1              
1 35682U 09041B   26197.86678369  .00000366  00000+0  61786-4 0  9992
2 35682  98.0087 330.8056 0009803 343.0504  17.0376 14.75168076909470
